STARLINK-37607          
1 69514U 26133G   26168.91668981 -.01583141  84451-3 -18471-2 0  9994
2 69514  53.1594 319.1338 0000719  43.8202 286.8794 16.08176950  1972
STARLINK-37232          
1 69515U 26133H   26168.91668981 -.01570359  83474-3 -18005-2 0  9999
2 69515  53.1592 319.1289 0000587  48.9195 284.3683 16.08447543  1975
STARLINK-37323          
1 69516U 26133J   26168.91668981 -.01557763  82506-3 -17564-2 0  9998
2 69516  53.1592 319.1232 0000562  52.0286 283.8309 16.08706543  1971
STARLINK-37357          
1 69517U 26133K   26168.91668981 -.01544111  81331-3 -17233-2 0  9990
2 69517  53.1593 319.1181 0000533  41.3711 296.9189 16.08862814  1973
STARLINK-37408          
1 69518U 26133L   26168.91668981 -.01531638  80359-3 -16833-2 0  9995
2 69518  53.1594 319.1129 0000549  45.6638 295.1703 16.09098763  1977
STARLINK-37570          
1 69519U 26133M   26168.91668981 -.01496514  77578-3 -15806-2 0  9997
2 69519  53.1594 319.1016 0000609  50.6254 295.4923 16.09704515  1976
STARLINK-37510          
1 69520U 26133N   26168.91668981 -.01515473  79108-3 -16320-2 0  9998
2 69520  53.1590 319.1080 0000555  49.6988 293.7746 16.09409450  1971
STARLINK-37586          
1 69521U 26133P   26168.91668981 -.01468050  75290-3 -15067-2 0  9992
2 69521  53.1592 319.0917 0000571  45.0415 306.1050 16.10137476  1970
STARLINK-37379          
1 69522U 26133Q   26168.91668981 -.01455192  74240-3 -14766-2 0  9995
2 69522  53.1592 319.0862 0000663  38.4825 315.1127 16.10307878  2020
STARLINK-37429          
1 69523U 26133R   26168.91668981 -.01442851  73235-3 -14484-2 0  9994
2 69523  53.1591 319.0811 0000690  44.4887 311.5512 16.10469530  2021
STARLINK-37352          
1 69524U 26133S   26168.91668981 -.01431808  72483-3 -14091-2 0  9993
2 69524  53.1593 319.0757 0000451  46.3985 312.2536 16.10766938  2024
STARLINK-37490          
1 69525U 26133T   26168.91668981 -.01392269  69338-3 -13197-2 0  9992
2 69525  53.1592 319.0650 0000511  44.5130 319.3534 16.11323637  2027
STARLINK-37438          
1 69526U 26133U   26168.91668981 -.01408982  70580-3 -13649-2 0  9996
2 69526  53.1593 319.0711 0000824  46.1073 315.0920 16.10999897  2026
STARLINK-37484          
1 69527U 26133V   26168.91668981 -.01367495  67263-3 -12783-2 0  9992
2 69527  53.1591 319.0578 0000661  37.5372 329.7719 16.11526235  2022
STARLINK-37523          
1 69528U 26133W   26168.91668981 -.01368374  67508-3 -12631-2 0  9994
2 69528  53.1593 319.0526 0000440  47.9365 321.8264 16.11713938  2026
STARLINK-37369          
1 69529U 26133X   26168.91668981 -.01335991  64746-3 -12187-2 0  9991
2 69529  53.1590 319.0475 0000438  75.3519 296.8956 16.11883843  2022
STARLINK-37670          
1 69530U 26133Y   26168.91668981 -.01327246  64297-3 -11793-2 0  9990
2 69530  53.1591 319.0423 0000578  40.3686 334.5996 16.12270419  2024
STARLINK-37897          
1 69531U 26133Z   26168.91668981 -.01308990  62884-3 -11438-2 0  9992
2 69531  53.1591 319.0343 0000535  37.1192 341.4682 16.12512830  1973
STARLINK-37933          
1 69532U 26133AA  26168.91668981 -.01281369  60780-3 -10906-2 0  9995
2 69532  53.1590 319.0284 0000449  51.5258 329.8112 16.12893134  1971
STARLINK-37890          
1 69533U 26133AB  26168.91668981 -.01264414  59478-3 -10608-2 0  9999
2 69533  53.1592 319.0232 0000529  50.4359 333.4033 16.13099151  1977
STARLINK-37407          
1 69534U 26133AC  26168.91668981 -.01238096  57443-3 -10189-2 0  9991
2 69534  53.1590 319.0145 0000730  35.5007 352.3415 16.13373020  2028
STARLINK-37888          
1 69535U 26133AD  26168.91668981 -.01218073  55973-3 -98229-3 0  9993
2 69535  53.1592 319.0089 0000451  36.2047 354.2518 16.13662700  1974
STARLINK-37889          
1 69536U 26133AE  26168.91668981 -.01482026  76374-3 -15464-2 0  9992
2 69536  53.1607 319.0980 0000731  45.4402 303.1436 16.09887338  1973
2026-134A               
1 69538U 26134A   26167.72437802  .00000587  00000+0  41008-4 0  9998
2 69538  97.7003 237.8242 0014154 273.9919  85.9691 15.09200639   241
2026-134B               
1 69539U 26134B   26167.72421602  .00001264  00000+0  83138-4 0  9993
2 69539  97.6974 237.8233 0014487 276.4553  83.5026 15.09360646   239
2026-134C               
1 69540U 26134C   26167.72418662  .00001265  00000+0  83187-4 0  9992
2 69540  97.6988 237.8231 0013786 277.2768  82.6893 15.09388935   235
2026-134D               
1 69541U 26134D   26167.72412390  .00001266  00000+0  83078-4 0  9995
2 69541  97.7025 237.8255 0014840 276.5336  83.4203 15.09445295   237
2026-134E               
1 69542U 26134E   26167.72410194  .00001267  00000+0  83106-4 0  9999
2 69542  97.7041 237.8242 0014658 277.3931  82.5632 15.09467803   234
