OBJECT_NAME,OBJECT_ID,EPOCH,MEAN_MOTION,ECCENTRICITY,INCLINATION,RA_OF_ASC_NODE,ARG_OF_PERICENTER,MEAN_ANOMALY,EPHEMERIS_TYPE,CLASSIFICATION_TYPE,NORAD_CAT_ID,ELEMENT_SET_NO,REV_AT_EPOCH,BSTAR,MEAN_MOTION_DOT,MEAN_MOTION_DDOT
STARLINK-37607,2026-133G,2026-06-17T22:00:01.999584,16.08176950,.00007197,53.1594,319.1338,43.8202,286.8794,0,U,69514,999,197,-.18471277E-2,-.1583141E-1,.84450916E-3
STARLINK-37232,2026-133H,2026-06-17T22:00:01.999584,16.08447543,.00005878,53.1592,319.1289,48.9195,284.3683,0,U,69515,999,197,-.18005405E-2,-.1570359E-1,.83474064E-3
STARLINK-37323,2026-133J,2026-06-17T22:00:01.999584,16.08706543,.00005628,53.1592,319.1232,52.0286,283.8309,0,U,69516,999,197,-.17563958E-2,-.1557763E-1,.82506121E-3
STARLINK-37357,2026-133K,2026-06-17T22:00:01.999584,16.08862814,.00005338,53.1593,319.1181,41.3711,296.9189,0,U,69517,999,197,-.17233298E-2,-.1544111E-1,.81331121E-3
STARLINK-37408,2026-133L,2026-06-17T22:00:01.999584,16.09098763,.00005499,53.1594,319.1129,45.6638,295.1703,0,U,69518,999,197,-.16833161E-2,-.1531638E-1,.80358525E-3
STARLINK-37570,2026-133M,2026-06-17T22:00:01.999584,16.09704515,.00006096,53.1594,319.1016,50.6254,295.4923,0,U,69519,999,197,-.15805822E-2,-.1496514E-1,.77578359E-3
STARLINK-37510,2026-133N,2026-06-17T22:00:01.999584,16.09409450,.00005552,53.1590,319.1080,49.6988,293.7746,0,U,69520,999,197,-.16320231E-2,-.1515473E-1,.79107713E-3
STARLINK-37586,2026-133P,2026-06-17T22:00:01.999584,16.10137476,.00005711,53.1592,319.0917,45.0415,306.1050,0,U,69521,999,197,-.15066854E-2,-.146805E-1,.75290356E-3
STARLINK-37379,2026-133Q,2026-06-17T22:00:01.999584,16.10307878,.00006635,53.1592,319.0862,38.4825,315.1127,0,U,69522,999,202,-.14766106E-2,-.1455192E-1,.74239857E-3
STARLINK-37429,2026-133R,2026-06-17T22:00:01.999584,16.10469530,.00006907,53.1591,319.0811,44.4887,311.5512,0,U,69523,999,202,-.14483523E-2,-.1442851E-1,.73234691E-3
STARLINK-37352,2026-133S,2026-06-17T22:00:01.999584,16.10766938,.00004517,53.1593,319.0757,46.3985,312.2536,0,U,69524,999,202,-.14090767E-2,-.1431808E-1,.72482957E-3
STARLINK-37490,2026-133T,2026-06-17T22:00:01.999584,16.11323637,.00005116,53.1592,319.0650,44.5130,319.3534,0,U,69525,999,202,-.13196566E-2,-.1392269E-1,.69338219E-3
STARLINK-37438,2026-133U,2026-06-17T22:00:01.999584,16.10999897,.00008247,53.1593,319.0711,46.1073,315.0920,0,U,69526,999,202,-.13649076E-2,-.1408982E-1,.70580265E-3
STARLINK-37484,2026-133V,2026-06-17T22:00:01.999584,16.11526235,.00006613,53.1591,319.0578,37.5372,329.7719,0,U,69527,999,202,-.1278319E-2,-.1367495E-1,.67262725E-3
STARLINK-37523,2026-133W,2026-06-17T22:00:01.999584,16.11713938,.00004403,53.1593,319.0526,47.9365,321.8264,0,U,69528,999,202,-.12631115E-2,-.1368374E-1,.67508435E-3
STARLINK-37369,2026-133X,2026-06-17T22:00:01.999584,16.11883843,.00004384,53.1590,319.0475,75.3519,296.8956,0,U,69529,999,202,-.12187363E-2,-.1335991E-1,.64745799E-3
STARLINK-37670,2026-133Y,2026-06-17T22:00:01.999584,16.12270419,.00005782,53.1591,319.0423,40.3686,334.5996,0,U,69530,999,202,-.1179305E-2,-.1327246E-1,.64296623E-3
STARLINK-37897,2026-133Z,2026-06-17T22:00:01.999584,16.12512830,.0000535,53.1591,319.0343,37.1192,341.4682,0,U,69531,999,197,-.11438057E-2,-.130899E-1,.62884479E-3
STARLINK-37933,2026-133AA,2026-06-17T22:00:01.999584,16.12893134,.00004499,53.1590,319.0284,51.5258,329.8112,0,U,69532,999,197,-.10905604E-2,-.1281369E-1,.60779755E-3
STARLINK-37890,2026-133AB,2026-06-17T22:00:01.999584,16.13099151,.0000529,53.1592,319.0232,50.4359,333.4033,0,U,69533,999,197,-.10607757E-2,-.1264414E-1,.59478138E-3
STARLINK-37407,2026-133AC,2026-06-17T22:00:01.999584,16.13373020,.00007306,53.1590,319.0145,35.5007,352.3415,0,U,69534,999,202,-.10189069E-2,-.1238096E-1,.57442623E-3
STARLINK-37888,2026-133AD,2026-06-17T22:00:01.999584,16.13662700,.0000451,53.1592,319.0089,36.2047,354.2518,0,U,69535,999,197,-.98228509E-3,-.1218073E-1,.55973244E-3
STARLINK-37889,2026-133AE,2026-06-17T22:00:01.999584,16.09887338,.00007318,53.1607,319.0980,45.4402,303.1436,0,U,69536,999,197,-.15464219E-2,-.1482026E-1,.76374182E-3
2026-134A,2026-134A,2026-06-16T17:23:06.260928,15.09200639,.00141542,97.7003,237.8242,273.9919,85.9691,0,U,69538,999,24,.41007631E-4,.587E-5,0
2026-134B,2026-134B,2026-06-16T17:22:52.264128,15.09360646,.00144875,97.6974,237.8233,276.4553,83.5026,0,U,69539,999,23,.83138065E-4,.1264E-4,0
2026-134C,2026-134C,2026-06-16T17:22:49.723968,15.09388935,.0013786,97.6988,237.8231,277.2768,82.6893,0,U,69540,999,23,.83187011E-4,.1265E-4,0
2026-134D,2026-134D,2026-06-16T17:22:44.304960,15.09445295,.00148404,97.7025,237.8255,276.5336,83.4203,0,U,69541,999,23,.83078072E-4,.1266E-4,0
2026-134E,2026-134E,2026-06-16T17:22:42.407616,15.09467803,.00146582,97.7041,237.8242,277.3931,82.5632,0,U,69542,999,23,.83105574E-4,.1267E-4,0
